start=new Date('2021-11-27T00:00:00.000Z').valueOf();
sats=[{"TLE_LINE1":"1 45699U 20035AU  21330.65308471  .00001263  00000-0  10369-3 0  9990","SITE":"AFETR","MEAN_ELEMENT_THEORY":"SGP4","RCS_SIZE":"LARGE","FILE":"3224952","LAUNCH_DATE":"2020-06-04","RA_OF_ASC_NODE":"217.8463","TLE_LINE2":"2 45699  53.0529 217.8463 0001956  71.5741 288.5460 15.06401326 83413","OBJECT_NAME":"STARLINK-1398","MEAN_MOTION":"15.06401326","DECAY_DATE":null,"OBJECT_ID":"2020-035AU","REV_AT_EPOCH":"8341","COUNTRY_CODE":"US","BSTAR":"0.00010369000000","MEAN_MOTION_DDOT":"0.0000000000000","EPOCH":"2021-11-26T15:40:26.518944","CLASSIFICATION_TYPE":"U","MEAN_ANOMALY":"288.5460","GP_ID":"190556718","CENTER_NAME":"EARTH","OBJECT_TYPE":"PAYLOAD","MEAN_MOTION_DOT":"0.00001263","SEMIMAJOR_AXIS":"6925.344","ECCENTRICITY":"0.00019560","EPHEMERIS_TYPE":"0","PERIOD":"95.592","PERIAPSIS":"545.855","INCLINATION":"53.0529","NORAD_CAT_ID":"45699","ARG_OF_PERICENTER":"71.5741","REF_FRAME":"TEME","ELEMENT_SET_NO":"999","APOAPSIS":"548.564","TIME_SYSTEM":"UTC"},{"TLE_LINE1":"1 45700U 20035AV  21330.71575890  .00001303  00000-0  10636-3 0  9993","SITE":"AFETR","MEAN_ELEMENT_THEORY":"SGP4","RCS_SIZE":"LARGE","LAUNCH_DATE":"2020-06-04","FILE":"3224952","RA_OF_ASC_NODE":"217.5815","TLE_LINE2":"2 45700  53.0550 217.5815 0002553  72.6994 287.4274 15.06406935 83427","OBJECT_NAME":"STARLINK-1400","MEAN_MOTION":"15.06406935","DECAY_DATE":null,"OBJECT_ID":"2020-035AV","REV_AT_EPOCH":"8342","COUNTRY_CODE":"US","BSTAR":"0.00010636000000","MEAN_MOTION_DDOT":"0.0000000000000","EPOCH":"2021-11-26T17:10:41.568960","CLASSIFICATION_TYPE":"U","GP_ID":"190556968","MEAN_ANOMALY":"287.4274","CENTER_NAME":"EARTH","OBJECT_TYPE":"PAYLOAD","MEAN_MOTION_DOT":"0.00001303","SEMIMAJOR_AXIS":"6925.327","ECCENTRICITY":"0.00025530","EPHEMERIS_TYPE":"0","PERIAPSIS":"545.424","PERIOD":"95.592","INCLINATION":"53.0550","NORAD_CAT_ID":"45700","ARG_OF_PERICENTER":"72.6994","REF_FRAME":"TEME","ELEMENT_SET_NO":"999","APOAPSIS":"548.960","TIME_SYSTEM":"UTC"},{"TLE_LINE1":"1 45701U 20035AW  21330.94428013 -.00000031  00000-0  16851-4 0  9997","SITE":"AFETR","RCS_SIZE":"LARGE","MEAN_ELEMENT_THEORY":"SGP4","RA_OF_ASC_NODE":"216.5415","FILE":"3224952","LAUNCH_DATE":"2020-06-04","OBJECT_NAME":"STARLINK-1403","TLE_LINE2":"2 45701  53.0534 216.5415 0002190  77.9303 282.1932 15.06397018 83451","MEAN_MOTION":"15.06397018","OBJECT_ID":"2020-035AW","REV_AT_EPOCH":"8345","DECAY_DATE":null,"BSTAR":"0.00001685100000","COUNTRY_CODE":"US","MEAN_MOTION_DDOT":"0.0000000000000","CLASSIFICATION_TYPE":"U","EPOCH":"2021-11-26T22:39:45.803232","GP_ID":"190558214","MEAN_ANOMALY":"282.1932","CENTER_NAME":"EARTH","MEAN_MOTION_DOT":"-0.00000031","OBJECT_TYPE":"PAYLOAD","SEMIMAJOR_AXIS":"6925.358","EPHEMERIS_TYPE":"0","ECCENTRICITY":"0.00021900","PERIOD":"95.592","PERIAPSIS":"545.706","NORAD_CAT_ID":"45701","INCLINATION":"53.0534","REF_FRAME":"TEME","ARG_OF_PERICENTER":"77.9303","TIME_SYSTEM":"UTC","APOAPSIS":"548.739","ELEMENT_SET_NO":"999"},{"OBJECT_NAME":"STARLINK-1405","TLE_LINE2":"2 45702  53.0540 219.0103 0002074  76.0528 284.0692 15.06396421 83373","OBJECT_ID":"2020-035AX","REV_AT_EPOCH":"8337","DECAY_DATE":null,"MEAN_MOTION":"15.06396421","TLE_LINE1":"1 45702U 20035AX  21330.39507798  .00001752  00000-0  13648-3 0  9995","SITE":"AFETR","RA_OF_ASC_NODE":"219.0103","LAUNCH_DATE":"2020-06-04","FILE":"3224704","RCS_SIZE":"LARGE","MEAN_ELEMENT_THEORY":"SGP4","GP_ID":"190528164","MEAN_ANOMALY":"284.0692","MEAN_MOTION_DDOT":"0.0000000000000","BSTAR":"0.00013648000000","COUNTRY_CODE":"US","CLASSIFICATION_TYPE":"U","EPOCH":"2021-11-26T09:28:54.737472","SEMIMAJOR_AXIS":"6925.360","EPHEMERIS_TYPE":"0","ECCENTRICITY":"0.00020740","CENTER_NAME":"EARTH","MEAN_MOTION_DOT":"0.00001752","OBJECT_TYPE":"PAYLOAD","APOAPSIS":"548.661","TIME_SYSTEM":"UTC","ELEMENT_SET_NO":"999","REF_FRAME":"TEME","ARG_OF_PERICENTER":"76.0528","PERIAPSIS":"545.788","PERIOD":"95.592","NORAD_CAT_ID":"45702","INCLINATION":"53.0540"},{"OBJECT_NAME":"STARLINK-1407","TLE_LINE2":"2 45703  53.0542 219.0352 0001954  71.5139 288.6062 15.06392642 83378","REV_AT_EPOCH":"8337","OBJECT_ID":"2020-035AY","DECAY_DATE":null,"MEAN_MOTION":"15.06392642","TLE_LINE1":"1 45703U 20035AY  21330.39139181 -.00000553  00000-0 -18228-4 0  9993","SITE":"AFETR","RA_OF_ASC_NODE":"219.0352","LAUNCH_DATE":"2020-06-04","FILE":"3224704","RCS_SIZE":"LARGE","MEAN_ELEMENT_THEORY":"SGP4","MEAN_ANOMALY":"288.6062","GP_ID":"190528414","MEAN_MOTION_DDOT":"0.0000000000000","BSTAR":"-0.00001822800000","COUNTRY_CODE":"US","CLASSIFICATION_TYPE":"U","EPOCH":"2021-11-26T09:23:36.252384","SEMIMAJOR_AXIS":"6925.371","EPHEMERIS_TYPE":"0","ECCENTRICITY":"0.00019540","CENTER_NAME":"EARTH","MEAN_MOTION_DOT":"-0.00000553","OBJECT_TYPE":"PAYLOAD","TIME_SYSTEM":"UTC","APOAPSIS":"548.589","ELEMENT_SET_NO":"999","REF_FRAME":"TEME","ARG_OF_PERICENTER":"71.5139","PERIAPSIS":"545.883","PERIOD":"95.593","NORAD_CAT_ID":"45703","INCLINATION":"53.0542"},{"CENTER_NAME":"EARTH","MEAN_MOTION_DOT":"0.00003048","OBJECT_TYPE":"PAYLOAD","SEMIMAJOR_AXIS":"6925.324","EPHEMERIS_TYPE":"0","ECCENTRICITY":"0.00019310","PERIOD":"95.592","PERIAPSIS":"545.851","NORAD_CAT_ID":"45704","INCLINATION":"53.0581","REF_FRAME":"TEME","ARG_OF_PERICENTER":"65.7738","TIME_SYSTEM":"UTC","APOAPSIS":"548.526","ELEMENT_SET_NO":"999","TLE_LINE1":"1 45704U 20035AZ  21330.48350904  .00003048  00000-0  22338-3 0  9998","SITE":"AFETR","RCS_SIZE":"LARGE","MEAN_ELEMENT_THEORY":"SGP4","RA_OF_ASC_NODE":"248.5728","LAUNCH_DATE":"2020-06-04","FILE":"3224704","OBJECT_NAME":"STARLINK-1409","TLE_LINE2":"2 45704  53.0581 248.5728 0001931  65.7738 294.3453 15.06408151 82977","MEAN_MOTION":"15.06408151","REV_AT_EPOCH":"8297","OBJECT_ID":"2020-035AZ","DECAY_DATE":null,"BSTAR":"0.00022338000000","COUNTRY_CODE":"US","MEAN_MOTION_DDOT":"0.0000000000000","EPOCH":"2021-11-26T11:36:15.181056","CLASSIFICATION_TYPE":"U","MEAN_ANOMALY":"294.3453","GP_ID":"190528666"},{"TLE_LINE1":"1 45705U 20035BA  21330.51026914  .00001714  00000-0  13394-3 0  9994","SITE":"AFETR","RA_OF_ASC_NODE":"248.5046","LAUNCH_DATE":"2020-06-04","FILE":"3224704","RCS_SIZE":"LARGE","MEAN_ELEMENT_THEORY":"SGP4","OBJECT_NAME":"STARLINK-1410","TLE_LINE2":"2 45705  53.0538 248.5046 0001931  67.6658 292.4536 15.06397803 82966","OBJECT_ID":"2020-035BA","REV_AT_EPOCH":"8296","DECAY_DATE":null,"MEAN_MOTION":"15.06397803","MEAN_MOTION_DDOT":"0.0000000000000","BSTAR":"0.00013394000000","COUNTRY_CODE":"US","CLASSIFICATION_TYPE":"U","EPOCH":"2021-11-26T12:14:47.253696","MEAN_ANOMALY":"292.4536","GP_ID":"190529403","CENTER_NAME":"EARTH","MEAN_MOTION_DOT":"0.00001714","OBJECT_TYPE":"PAYLOAD","SEMIMAJOR_AXIS":"6925.355","EPHEMERIS_TYPE":"0","ECCENTRICITY":"0.00019310","PERIOD":"95.592","PERIAPSIS":"545.883","NORAD_CAT_ID":"45705","INCLINATION":"53.0538","APOAPSIS":"548.558","TIME_SYSTEM":"UTC","ELEMENT_SET_NO":"999","REF_FRAME":"TEME","ARG_OF_PERICENTER":"67.6658"},{"INCLINATION":"53.0530","NORAD_CAT_ID":"45706","PERIAPSIS":"546.020","PERIOD":"95.592","ELEMENT_SET_NO":"999","APOAPSIS":"548.419","TIME_SYSTEM":"UTC","ARG_OF_PERICENTER":"80.3973","REF_FRAME":"TEME","OBJECT_TYPE":"PAYLOAD","MEAN_MOTION_DOT":"-0.00000238","CENTER_NAME":"EARTH","ECCENTRICITY":"0.00017320","EPHEMERIS_TYPE":"0","SEMIMAJOR_AXIS":"6925.354","EPOCH":"2021-11-26T10:27:17.216352","CLASSIFICATION_TYPE":"U","MEAN_MOTION_DDOT":"0.0000000000000","COUNTRY_CODE":"US","BSTAR":"0.00000289560000","GP_ID":"190534702","MEAN_ANOMALY":"279.7212","FILE":"3224818","LAUNCH_DATE":"2020-06-04","RA_OF_ASC_NODE":"218.8286","MEAN_ELEMENT_THEORY":"SGP4","RCS_SIZE":"LARGE","SITE":"AFETR","TLE_LINE1":"1 45706U 20035BB  21330.43561593 -.00000238  00000-0  28956-5 0  9996","DECAY_DATE":null,"OBJECT_ID":"2020-035BB","REV_AT_EPOCH":"8297","MEAN_MOTION":"15.06398122","TLE_LINE2":"2 45706  53.0530 218.8286 0001732  80.3973 279.7212 15.06398122 82971","OBJECT_NAME":"STARLINK-1411"},{"DECAY_DATE":null,"OBJECT_ID":"2020-035BC","REV_AT_EPOCH":"8346","MEAN_MOTION":"15.06396257","TLE_LINE2":"2 45707  53.0539 216.4675 0002386  73.6926 286.4325 15.06396257 83468","OBJECT_NAME":"STARLINK-1412","LAUNCH_DATE":"2020-06-04","FILE":"3224952","RA_OF_ASC_NODE":"216.4675","MEAN_ELEMENT_THEORY":"SGP4","RCS_SIZE":"LARGE","TLE_LINE1":"1 45707U 20035BC  21330.96270715 -.00000768  00000-0 -32641-4 0  9992","SITE":"AFETR","GP_ID":"190556719","MEAN_ANOMALY":"286.4325","CLASSIFICATION_TYPE":"U","EPOCH":"2021-11-26T23:06:17.897760","MEAN_MOTION_DDOT":"0.0000000000000","COUNTRY_CODE":"US","BSTAR":"-0.00003264100000","ECCENTRICITY":"0.00023860","EPHEMERIS_TYPE":"0","SEMIMAJOR_AXIS":"6925.360","OBJECT_TYPE":"PAYLOAD","MEAN_MOTION_DOT":"-0.00000768","CENTER_NAME":"EARTH","ELEMENT_SET_NO":"999","APOAPSIS":"548.877","TIME_SYSTEM":"UTC","ARG_OF_PERICENTER":"73.6926","REF_FRAME":"TEME","INCLINATION":"53.0539","NORAD_CAT_ID":"45707","PERIOD":"95.592","PERIAPSIS":"545.573"},{"ELEMENT_SET_NO":"999","TIME_SYSTEM":"UTC","APOAPSIS":"548.625","ARG_OF_PERICENTER":"72.4995","REF_FRAME":"TEME","PERIAPSIS":"545.838","PERIOD":"95.593","INCLINATION":"53.0533","NORAD_CAT_ID":"45708","SEMIMAJOR_AXIS":"6925.367","ECCENTRICITY":"0.00020120","EPHEMERIS_TYPE":"0","CENTER_NAME":"EARTH","OBJECT_TYPE":"PAYLOAD","MEAN_MOTION_DOT":"0.00000515","MEAN_ANOMALY":"287.6214","GP_ID":"190556969","MEAN_MOTION_DDOT":"0.0000000000000","COUNTRY_CODE":"US","BSTAR":"0.00005352300000","CLASSIFICATION_TYPE":"U","EPOCH":"2021-11-26T16:06:59.912928","TLE_LINE2":"2 45708  53.0533 217.7775 0002012  72.4995 287.6214 15.06394037 83427","OBJECT_NAME":"STARLINK-1418","DECAY_DATE":null,"OBJECT_ID":"2020-035BD","REV_AT_EPOCH":"8342","MEAN_MOTION":"15.06394037","TLE_LINE1":"1 45708U 20035BD  21330.67152677  .00000515  00000-0  53523-4 0  9997","SITE":"AFETR","LAUNCH_DATE":"2020-06-04","FILE":"3224952","RA_OF_ASC_NODE":"217.7775","MEAN_ELEMENT_THEORY":"SGP4","RCS_SIZE":"LARGE"}];
